C/2021 A1 (Leonard),h,01/03.2994/2022,132.6862,255.8781,225.0895,1.000064,0.615064,2000,8.5,4.0
# From MPEC 2021-BE3
C/2021 A2,h,01/22.7085/2021,107.0293,125.2199,338.8890,1.001046,1.413524,2000,13.5,4.0
# From MPEC 2021-BE3
C/2021 A4 (NEOWISE),e,111.5848,307.0768,204.6260,45.41977,0.0032199,0.97477515,0.0000,03/19.9988/2021,2000,g 16.0,4.0
# From MPEC 2021-BE3
P/2021 A5 (PANSTARRS),e,18.1881,328.7681,61.0600,3.045612,0.1854352,0.13954484,18.1105,02/17.0/2021,2000,g 15.0,4.0
# From MPEC 2021-BE3
C/2021 A6 (PANSTARRS),e,75.5775,164.0871,351.3030,4313,0.0000035,0.99816099,0.0000,04/27.9572/2021,2000,g  7.0,4.0
# From MPEC 2021-BE3
C/2021 A7 (NEOWISE),e,78.1421,154.5388,356.0711,734.9835,0.0000495,0.99732172,0.0000,07/15.5088/2021,2000,g 10.0,4.0
# From MPEC 2021-BE3
C/2021 A9 (PANSTARRS),h,11/24.4853/2023,158.0895,314.7665,211.7471,1.036762,7.704352,2000,6.0,4.0
# From MPEC 2021-C25
C/2021 A10 (NEOWISE),e,151.5246,188.3487,82.2656,93.84380,0.0010842,0.98648242,0.0000,03/15.2636/2021,2000,g 19.0,4.0
# From MPEC 2021-BE3
C/2021 B2 (PANSTARRS),e,38.1386,120.4361,334.8738,433.7987,0.0001091,0.99419204,0.0000,05/04.1048/2021,2000,g 14.0,4.0
# From MPEC 2021-C16
C/2021 B3 (NEOWISE),e,119.5037,67.3325,293.6935,31.03165,0.0057016,0.93045078,359.9990,03/11.0/2021,2000,g 13.5,4.0
# From  98, 1083
1P/Halley,e,162.2761,58.5300,111.4673,17.87225,0.0130447,0.96615312,167.0096,02/17.0/2021,2000,g  4.0,6.0
# From MPC118097
2P/Encke,e,11.7736,334.5337,186.5834,2.216382,0.2987014,0.84816593,70.5234,02/17.0/2021,2000,g 11.5,6.0
# From MPEC 2015-A10
4P/Faye,e,8.0106,192.9769,206.9458,3.827285,0.1316340,0.57702567,333.0964,02/17.0/2021,2000,g  8.0,6.0
# From MPEC 2015-S97
6P/d'Arrest,e,19.5124,138.9356,178.1068,3.497288,0.1506978,0.61265084,327.9347,02/17.0/2021,2000,g  9.0,4.0
# From MPEC 2015-E14
7P/Pons-Winnecke,e,22.3635,93.3760,172.5912,3.414057,0.1562420,0.63847647,344.5152,02/17.0/2021,2000,g  9.0,4.0
# From MPEC 2021-BE3
8P/Tuttle,e,54.9116,270.2035,207.4915,5.705767,0.0723158,0.82017842,346.1337,02/17.0/2021,2000,g  8.0,8.0
# From MPEC 2019-JE2
9P/Tempel,e,10.4703,68.7259,179.3276,3.147126,0.1765358,0.50935138,292.7578,02/17.0/2021,2000,g  9.0,4.0
# From MPC114607
10P/Tempel,e,12.0397,117.8097,195.5086,3.061509,0.1839928,0.53863424,353.5086,02/17.0/2021,2000,g  5.0,10.0
# From MPEC 2017-L52
11P/Tempel-Swift-LINEAR,e,14.4207,238.9155,167.9480,3.283092,0.1656836,0.57698742,13.7142,02/17.0/2021,2000,g  9.0,4.0
# From  27, 604
12P/Pons-Brooks,e,74.1041,255.7402,199.0179,17.11710,0.0139174,0.95433782,343.8711,02/17.0/2021,2000,g  5.0,6.0
# From  27, 604
13P/Olbers,e,44.6247,85.8812,64.4929,16.69686,0.0144461,0.92971064,342.2249,02/17.0/2021,2000,g  5.0,6.0
# From MPC100283
14P/Wolf,e,27.9079,202.0639,158.9951,4.258878,0.1121402,0.35683328,131.4900,02/17.0/2021,2000,g  5.5,12.0
# From MPC 92276
15P/Finlay,e,6.7974,13.7193,347.8272,3.505445,0.1501721,0.71704013,337.9927,02/17.0/2021,2000,g 12.0,4.0
# From MPC 92276
16P/Brooks,e,3.0119,138.8700,245.1675,3.655941,0.1409955,0.48629272,351.5189,02/17.0/2021,2000,g  7.5,10.0
# From MPEC 2020-SI8
17P/Holmes,e,19.0320,326.6200,24.4690,3.636300,0.1421394,0.42780079,359.5982,02/17.0/2021,2000,g 10.0,6.0
# From MPC 92984
19P/Borrelly,e,29.3222,74.3082,351.8555,3.606974,0.1438764,0.63793315,309.6794,02/17.0/2021,2000,g  4.5,10.0
# From MPC111773
21P/Giacobini-Zinner,e,32.0258,195.3548,172.8514,3.495779,0.1507954,0.71083223,134.2762,02/17.0/2021,2000,g  9.0,6.0
# From MPC 94283
22P/Kopff,e,4.7420,120.8373,162.9834,3.442050,0.1543400,0.54888040,299.1823,02/17.0/2021,2000,g  3.0,10.4
# From MPC 14747
23P/Brorsen-Metcalf,e,19.1294,312.4343,128.7960,16.95211,0.0141211,0.97119388,0.0000,08/07.7582/1989,2000,g 10.0,6.0
# From MPC110085
24P/Schaumasse,e,11.5800,78.8969,58.0371,4.053165,0.1207849,0.70885436,143.6840,02/17.0/2021,2000,g  6.5,14.0
# From MPC 94674
26P/Grigg-Skjellerup,e,22.4386,211.5405,2.1883,3.014100,0.1883508,0.64046759,163.7839,02/17.0/2021,2000,g 12.0,16.0
# From MPC 78188
27P/Crommelin,e,29.1703,250.5925,195.9666,9.187280,0.0353935,0.91810831,123.7515,02/17.0/2021,2000,g 12.0,8.0
# From MPEC 2020-SI8
28P/Neujmin,e,14.3116,346.3325,347.4119,6.980565,0.0534402,0.77390625,358.7770,02/17.0/2021,2000,g  8.5,6.0
# From MPEC 2020-U96
29P/Schwassmann-Wachmann,e,9.3668,312.3741,48.7822,6.036520,0.0664545,0.04444584,46.4162,02/17.0/2021,2000,g  4.0,4.0
# From MPC110085
30P/Reinmuth,e,8.5103,118.8346,10.2095,3.667343,0.1403385,0.53431838,180.5372,02/17.0/2021,2000,g  9.5,6.0
# From MPC108597
31P/Schwassmann-Wachmann,e,4.5473,114.1137,18.1958,4.239765,0.1128993,0.19224308,66.9334,02/17.0/2021,2000,g  5.0,8.0
# From MPC 92276
32P/Comas Sola,e,9.8990,56.9783,53.8102,4.497212,0.1033449,0.55931480,239.8776,02/17.0/2021,2000,g  6.5,8.0
# From MPEC 2013-O31
33P/Daniel,e,22.3088,66.3342,20.5795,4.084351,0.1194042,0.45188802,197.0379,02/17.0/2021,2000,g 10.0,12.0
# From  15, 452
35P/Herschel-Rigollet,e,64.985,356.550,29.010,28.5640,0.006456,0.9736956,0.000,12/27.2056/2091,2000,g  9.0,4.0
# From MPEC 2020-SI8
36P/Whipple,e,9.9518,181.8575,200.8143,4.132202,0.1173361,0.26872995,30.6452,02/17.0/2021,2000,g  8.5,6.0
# From MPEC 2018-HA5
37P/Forbes,e,8.9576,314.5594,330.1073,3.459864,0.1531495,0.53396317,156.1651,02/17.0/2021,2000,g 10.5,4.8
# From MPEC 2018-S50
38P/Stephan-Oterma,e,18.3578,77.9803,359.5215,11.24479,0.0261383,0.85893110,21.6709,02/17.0/2021,2000,g  3.5,12.0
# From MPEC 2020-W26
39P/Oterma,e,1.5605,299.2391,95.5203,7.396369,0.0489978,0.22409267,319.7958,02/17.0/2021,2000,g  7.0,6.0
# From MPC100283
40P/Vaisala,e,11.4693,133.7786,47.4448,4.951633,0.0894502,0.62973350,204.7712,02/17.0/2021,2000,g  5.5,12.0
# From MPC105240
41P/Tuttle-Giacobini-Kresak,e,9.2209,140.9900,62.2558,3.086644,0.1817499,0.66008776,255.7836,02/17.0/2021,2000,g 10.0,16.0
# From MPC 94283
42P/Neujmin,e,3.9903,150.1820,147.2006,4.872954,0.0916253,0.58542308,195.9386,02/17.0/2021,2000,g 13.0,6.0
# From MPC102956
43P/Wolf-Harrington,e,9.3534,244.2473,224.1178,4.311899,0.1100782,0.43682001,180.3976,02/17.0/2021,2000,g  8.0,6.0
# From MPEC 2020-HN5
44P/Reinmuth,e,5.8984,286.4801,58.1402,3.688689,0.1391221,0.42728527,300.1073,02/17.0/2021,2000,g  8.3,6.0
# From MPC103849
45P/Honda-Mrkos-Pajdusakova,e,4.3240,87.7054,327.9337,3.051051,0.1849396,0.81752540,280.0000,02/17.0/2021,2000,g 13.5,8.0
# From MPC114607
46P/Wirtanen,e,11.7433,82.1576,356.3519,3.091579,0.1813149,0.65822888,144.5918,02/17.0/2021,2000,g 14.0,6.0
# From MPEC 2021-BE3
47P/Ashbrook-Jackson,e,13.0376,356.9223,357.6171,4.124495,0.1176652,0.31818811,158.4887,02/17.0/2021,2000,g  1.0,11.2
# From MPEC 2015-M77
48P/Johnson,e,12.2074,110.1261,216.6392,3.500718,0.1504764,0.42740832,138.3378,02/17.0/2021,2000,g  9.0,4.0
# From MPEC 2020-K19
49P/Arend-Rigaux,e,19.0460,118.7969,332.9625,3.569970,0.1461192,0.59831165,138.5805,02/17.0/2021,2000,g 11.3,4.4
# From MPEC 2015-S97
50P/Arend,e,19.0994,355.1680,49.3195,4.089095,0.1191964,0.52879544,219.1443,02/17.0/2021,2000,g  9.5,6.0
# From NK 3013
51P-A/Harrington,e,5.4260,83.6658,269.2687,3.707621,0.1380578,0.54323305,278.2894,02/17.0/2021,2000,g 16.0,8.0
# From NK 3014
51P-A/Harrington,e,5.4253,83.6813,269.2296,3.708638,0.1380011,0.54330608,278.0220,02/17.0/2021,2000,g 10.0,8.0
# From NK 3014
51P-A/Harrington,e,5.4253,83.6813,269.2296,3.708620,0.1380021,0.54330297,278.0255,02/17.0/2021,2000,g 10.0,8.0
# From MPEC 2015-L08
51P-D/Harrington,e,5.4267,83.6713,269.2189,3.707710,0.1380529,0.54324727,278.2835,02/17.0/2021,2000,g 16.0,8.0
# From MPEC 2015-L08
51P-D/Harrington,e,5.4267,83.6703,269.2197,3.707697,0.1380536,0.54324783,278.2888,02/17.0/2021,2000,g 16.0,8.0
# From NK 3013
51P-D/Harrington,e,5.4260,83.6662,269.2684,3.707621,0.1380579,0.54323324,278.2896,02/17.0/2021,2000,g 16.0,8.0
# From NK 3013
51P-D/Harrington,e,5.4260,83.6662,269.2684,3.707621,0.1380579,0.54323337,278.2896,02/17.0/2021,2000,g 16.0,8.0
# From MPC 88330
52P/Harrington-Abell,e,10.2317,336.8389,139.6009,3.862920,0.1298167,0.53992969,330.1145,02/17.0/2021,2000,g 13.5,6.0
# From MPC100283
53P/Van Biesbroeck,e,6.6089,148.8195,134.4524,5.426328,0.0779731,0.55203997,136.6871,02/17.0/2021,2000,g  7.7,4.8
# From MPC 89011
54P/de Vico-Swift-NEAT,e,6.0633,358.8142,1.7699,3.792194,0.1334653,0.42578981,187.1850,02/17.0/2021,2000,g  9.0,4.0
# From MPC 31070
55P/Tempel-Tuttle,e,162.4106,235.4054,172.5170,10.35236,0.0295900,0.90637069,249.2786,02/17.0/2021,2000,g  9.0,4.0
# From MPC101100
56P/Slaughter-Burnham,e,8.1600,345.9898,43.9905,5.070371,0.0863266,0.50725014,144.5150,02/17.0/2021,2000,g  8.5,6.0
# From MPC 98565
57P/du Toit-Neujmin-Delporte,e,2.8508,188.7781,115.2535,3.446093,0.1540684,0.50081580,322.6479,02/17.0/2021,2000,g 12.5,6.0
# From MPEC 2020-SI8
58P/Jackson-Neujmin,e,13.1101,159.0772,200.4469,4.080842,0.1195582,0.66246602,31.7504,02/17.0/2021,2000,g 15.5,6.0
# From MPC111774
59P/Kearns-Kwee,e,9.3415,312.8350,127.5676,4.487645,0.1036755,0.47493847,91.7080,02/17.0/2021,2000,g  7.0,6.0
# From MPEC 2015-M77
60P/Tsuchinshan,e,3.5947,267.5716,216.9100,3.521586,0.1491408,0.53561374,119.2590,02/17.0/2021,2000,g  9.0,4.0
# From MPEC 2015-Q71
61P/Shajn-Schaldach,e,5.9987,162.9810,221.8566,3.685944,0.1392775,0.42386514,274.4274,02/17.0/2021,2000,g  6.0,10.0
# From MPC109147
62P/Tsuchinshan,e,4.8072,70.1780,46.3982,3.345893,0.1610409,0.63262678,192.8707,02/17.0/2021,2000,g  8.0,10.0
# From MPC 84320
63P/Wild,e,19.7304,358.0185,169.1182,5.605975,0.0742553,0.64885609,213.5221,02/17.0/2021,2000,g 10.5,6.0
# From MPC111774
64P/Swift-Gehrels,e,8.9503,300.0004,97.0753,4.454092,0.1048493,0.68780995,87.6463,02/17.0/2021,2000,g  9.5,12.0
# From MPC104795
65P/Gunn,e,9.1806,62.0215,213.8520,3.885324,0.1286955,0.24959907,156.7760,02/17.0/2021,2000,g  5.0,6.0
# From MPC109147
66P/du Toit,e,18.6530,21.8449,257.3526,6.065373,0.0659808,0.78683156,66.2997,02/17.0/2021,2000,g  9.0,4.0
# From MPC 89011
67P/Churyumov-Gerasimenko,e,3.8710,36.3774,22.0837,3.459054,0.1532033,0.65012542,320.4754,02/17.0/2021,2000,g 11.0,4.0
# From MPC 75716
